[{"OBJECT_NAME":"SL-8 R/B","OBJECT_ID":"1991-006B","EPOCH":"2026-03-14T17:30:40.672224","MEAN_MOTION":13.77494998,"ECCENTRICITY":0.00227819,"INCLINATION":82.9463,"RA_OF_ASC_NODE":166.2992,"ARG_OF_PERICENTER":24.6372,"MEAN_ANOMALY":139.2832,"EPHEMERIS_TYPE":0,"CLASSIFICATION_TYPE":"U","NORAD_CAT_ID":21088,"ELEMENT_SET_NO":999,"REV_AT_EPOCH":76476,"BSTAR":5.8168937e-5,"MEAN_MOTION_DOT":7.3e-7,"MEAN_MOTION_DDOT":0},{"OBJECT_NAME":"OKEAN-3","OBJECT_ID":"1991-039A","EPOCH":"2026-03-14T17:34:56.904384","MEAN_MOTION":15.04848501,"ECCENTRICITY":0.00134784,"INCLINATION":82.5202,"RA_OF_ASC_NODE":331.9587,"ARG_OF_PERICENTER":318.5142,"MEAN_ANOMALY":41.5061,"EPHEMERIS_TYPE":0,"CLASSIFICATION_TYPE":"U","NORAD_CAT_ID":21397,"ELEMENT_SET_NO":999,"REV_AT_EPOCH":86579,"BSTAR":0.00029816937,"MEAN_MOTION_DOT":4.247e-5,"MEAN_MOTION_DDOT":0},{"OBJECT_NAME":"COSMOS 2151","OBJECT_ID":"1991-042A","EPOCH":"2026-03-14T22:52:10.857216","MEAN_MOTION":15.00128699,"ECCENTRICITY":0.00136784,"INCLINATION":82.4929,"RA_OF_ASC_NODE":78.5975,"ARG_OF_PERICENTER":47.5428,"MEAN_ANOMALY":312.695,"EPHEMERIS_TYPE":0,"CLASSIFICATION_TYPE":"U","NORAD_CAT_ID":21422,"ELEMENT_SET_NO":999,"REV_AT_EPOCH":86398,"BSTAR":0.00022700458,"MEAN_MOTION_DOT":2.863e-5,"MEAN_MOTION_DDOT":0},{"OBJECT_NAME":"SL-14 R/B","OBJECT_ID":"1991-042B","EPOCH":"2026-03-14T21:21:09.506304","MEAN_MOTION":14.81835772,"ECCENTRICITY":0.00160833,"INCLINATION":82.4934,"RA_OF_ASC_NODE":215.3063,"ARG_OF_PERICENTER":220.3539,"MEAN_ANOMALY":139.6483,"EPHEMERIS_TYPE":0,"CLASSIFICATION_TYPE":"U","NORAD_CAT_ID":21423,"ELEMENT_SET_NO":999,"REV_AT_EPOCH":85384,"BSTAR":6.9169616e-5,"MEAN_MOTION_DOT":5.71e-6,"MEAN_MOTION_DDOT":0},{"OBJECT_NAME":"ERS-1","OBJECT_ID":"1991-050A","EPOCH":"2026-03-14T21:51:20.356128","MEAN_MOTION":14.39453893,"ECCENTRICITY":0.00319217,"INCLINATION":98.7877,"RA_OF_ASC_NODE":92.2764,"ARG_OF_PERICENTER":184.8667,"MEAN_ANOMALY":175.2214,"EPHEMERIS_TYPE":0,"CLASSIFICATION_TYPE":"U","NORAD_CAT_ID":21574,"ELEMENT_SET_NO":999,"REV_AT_EPOCH":81648,"BSTAR":0.00013112013,"MEAN_MOTION_DOT":3.64e-6,"MEAN_MOTION_DDOT":0},{"OBJECT_NAME":"ARIANE 40 R/B","OBJECT_ID":"1991-050F","EPOCH":"2026-03-14T21:06:57.976416","MEAN_MOTION":14.42897826,"ECCENTRICITY":0.0004189,"INCLINATION":98.2002,"RA_OF_ASC_NODE":125.9213,"ARG_OF_PERICENTER":69.8913,"MEAN_ANOMALY":290.2728,"EPHEMERIS_TYPE":0,"CLASSIFICATION_TYPE":"U","NORAD_CAT_ID":21610,"ELEMENT_SET_NO":999,"REV_AT_EPOCH":81974,"BSTAR":0.00011281588,"MEAN_MOTION_DOT":3.35e-6,"MEAN_MOTION_DDOT":0},{"OBJECT_NAME":"INTERCOSMOS 25","OBJECT_ID":"1991-086A","EPOCH":"2026-03-14T22:35:06.802080","MEAN_MOTION":12.12019642,"ECCENTRICITY":0.14868611,"INCLINATION":82.6045,"RA_OF_ASC_NODE":306.8342,"ARG_OF_PERICENTER":105.6218,"MEAN_ANOMALY":271.3487,"EPHEMERIS_TYPE":0,"CLASSIFICATION_TYPE":"U","NORAD_CAT_ID":21819,"ELEMENT_SET_NO":999,"REV_AT_EPOCH":49732,"BSTAR":0.00043553821,"MEAN_MOTION_DOT":2.258e-5,"MEAN_MOTION_DDOT":0},{"OBJECT_NAME":"SL-8 R/B","OBJECT_ID":"1992-008B","EPOCH":"2026-03-14T21:28:39.722880","MEAN_MOTION":13.75969771,"ECCENTRICITY":0.00357427,"INCLINATION":82.9221,"RA_OF_ASC_NODE":263.905,"ARG_OF_PERICENTER":119.2168,"MEAN_ANOMALY":352.3492,"EPHEMERIS_TYPE":0,"CLASSIFICATION_TYPE":"U","NORAD_CAT_ID":21876,"ELEMENT_SET_NO":999,"REV_AT_EPOCH":71013,"BSTAR":-2.715339e-6,"MEAN_MOTION_DOT":1.3e-7,"MEAN_MOTION_DDOT":0},{"OBJECT_NAME":"SL-8 R/B","OBJECT_ID":"1992-020B","EPOCH":"2026-03-14T17:18:51.870816","MEAN_MOTION":13.75549934,"ECCENTRICITY":0.00275716,"INCLINATION":82.9329,"RA_OF_ASC_NODE":150.026,"ARG_OF_PERICENTER":284.12,"MEAN_ANOMALY":187.5096,"EPHEMERIS_TYPE":0,"CLASSIFICATION_TYPE":"U","NORAD_CAT_ID":21938,"ELEMENT_SET_NO":999,"REV_AT_EPOCH":70182,"BSTAR":3.6151231e-5,"MEAN_MOTION_DOT":5.0e-7,"MEAN_MOTION_DDOT":0},{"OBJECT_NAME":"USA 81","OBJECT_ID":"1992-023A","EPOCH":"2026-03-14T21:33:18.549504","MEAN_MOTION":14.32369784,"ECCENTRICITY":0.00023237,"INCLINATION":85.0074,"RA_OF_ASC_NODE":128.4362,"ARG_OF_PERICENTER":72.997,"MEAN_ANOMALY":287.1477,"EPHEMERIS_TYPE":0,"CLASSIFICATION_TYPE":"U","NORAD_CAT_ID":21949,"ELEMENT_SET_NO":999,"REV_AT_EPOCH":9553,"BSTAR":6.1694991e-5,"MEAN_MOTION_DOT":1.87e-6,"MEAN_MOTION_DDOT":0},{"OBJECT_NAME":"COSMOS 2219","OBJECT_ID":"1992-076A","EPOCH":"2026-03-14T21:31:48.423936","MEAN_MOTION":14.14093688,"ECCENTRICITY":0.00186704,"INCLINATION":71.0641,"RA_OF_ASC_NODE":7.1829,"ARG_OF_PERICENTER":199.7895,"MEAN_ANOMALY":160.2506,"EPHEMERIS_TYPE":0,"CLASSIFICATION_TYPE":"U","NORAD_CAT_ID":22219,"ELEMENT_SET_NO":999,"REV_AT_EPOCH":71911,"BSTAR":1.2937406e-5,"MEAN_MOTION_DOT":-2.2e-7,"MEAN_MOTION_DDOT":0},{"OBJECT_NAME":"SL-16 R/B","OBJECT_ID":"1992-076B","EPOCH":"2026-03-14T17:29:30.086016","MEAN_MOTION":14.16859195,"ECCENTRICITY":0.00105214,"INCLINATION":71.0007,"RA_OF_ASC_NODE":177.7596,"ARG_OF_PERICENTER":87.0211,"MEAN_ANOMALY":74.3889,"EPHEMERIS_TYPE":0,"CLASSIFICATION_TYPE":"U","NORAD_CAT_ID":22220,"ELEMENT_SET_NO":999,"REV_AT_EPOCH":72254,"BSTAR":1.8633084e-5,"MEAN_MOTION_DOT":-1.0e-7,"MEAN_MOTION_DDOT":0},{"OBJECT_NAME":"COSMOS 2221","OBJECT_ID":"1992-080A","EPOCH":"2026-03-14T22:05:46.260384","MEAN_MOTION":14.96224196,"ECCENTRICITY":0.00144993,"INCLINATION":82.5006,"RA_OF_ASC_NODE":274.0693,"ARG_OF_PERICENTER":169.5622,"MEAN_ANOMALY":190.5904,"EPHEMERIS_TYPE":0,"CLASSIFICATION_TYPE":"U","NORAD_CAT_ID":22236,"ELEMENT_SET_NO":999,"REV_AT_EPOCH":78157,"BSTAR":0.00018713725,"MEAN_MOTION_DOT":2.14e-5,"MEAN_MOTION_DDOT":0},{"OBJECT_NAME":"SL-16 R/B","OBJECT_ID":"1992-093B","EPOCH":"2026-03-14T21:33:43.837056","MEAN_MOTION":14.15447059,"ECCENTRICITY":0.00063091,"INCLINATION":71.0241,"RA_OF_ASC_NODE":353.3324,"ARG_OF_PERICENTER":288.3571,"MEAN_ANOMALY":71.6865,"EPHEMERIS_TYPE":0,"CLASSIFICATION_TYPE":"U","NORAD_CAT_ID":22285,"ELEMENT_SET_NO":999,"REV_AT_EPOCH":71389,"BSTAR":6.692648e-6,"MEAN_MOTION_DOT":-3.5e-7,"MEAN_MOTION_DDOT":0},{"OBJECT_NAME":"COSMOS 2228","OBJECT_ID":"1992-094A","EPOCH":"2026-03-14T22:24:19.375776","MEAN_MOTION":14.97220812,"ECCENTRICITY":0.00166222,"INCLINATION":82.516,"RA_OF_ASC_NODE":232.2888,"ARG_OF_PERICENTER":285.5858,"MEAN_ANOMALY":74.3529,"EPHEMERIS_TYPE":0,"CLASSIFICATION_TYPE":"U","NORAD_CAT_ID":22286,"ELEMENT_SET_NO":999,"REV_AT_EPOCH":77684,"BSTAR":0.00023196,"MEAN_MOTION_DOT":2.716e-5,"MEAN_MOTION_DDOT":0},{"OBJECT_NAME":"SL-16 R/B","OBJECT_ID":"1993-016B","EPOCH":"2026-03-14T19:09:06.890688","MEAN_MOTION":14.15309283,"ECCENTRICITY":0.00121437,"INCLINATION":71.0082,"RA_OF_ASC_NODE":204.452,"ARG_OF_PERICENTER":307.3731,"MEAN_ANOMALY":52.6285,"EPHEMERIS_TYPE":0,"CLASSIFICATION_TYPE":"U","NORAD_CAT_ID":22566,"ELEMENT_SET_NO":999,"REV_AT_EPOCH":70289,"BSTAR":-3.3599206e-5,"MEAN_MOTION_DOT":-1.13e-6,"MEAN_MOTION_DDOT":0},{"OBJECT_NAME":"COSMOS 2242","OBJECT_ID":"1993-024A","EPOCH":"2026-03-14T22:01:53.907456","MEAN_MOTION":14.96572986,"ECCENTRICITY":0.00149467,"INCLINATION":82.5151,"RA_OF_ASC_NODE":261.714,"ARG_OF_PERICENTER":289.7964,"MEAN_ANOMALY":70.1646,"EPHEMERIS_TYPE":0,"CLASSIFICATION_TYPE":"U","NORAD_CAT_ID":22626,"ELEMENT_SET_NO":999,"REV_AT_EPOCH":78117,"BSTAR":0.0002300708,"MEAN_MOTION_DOT":2.648e-5,"MEAN_MOTION_DDOT":0}]
